[
    {
        "Altitude(m)": 706114.002014085,
        "Argument of Periapsis(deg)": 0.0011390121186627068,
        "Eccentricity": 0.0,
        "Inclination(deg)": 45.0,
        "Latitude(deg)": 39.72088001213027,
        "Longitude(deg)": -115.7773370238228,
        "Mean Anomaly(deg)": 115.69882166474805,
        "RAAN(deg)": 219.9989248058542,
        "Satellite Name": "Constellation 1 975",
        "Satellite Number": 975,
        "Semi-Major Axis(m)": 7083131.272910544,
        "Time(s)": 19
    },
    {
        "Altitude(m)": 706108.8479049773,
        "Argument of Periapsis(deg)": 0.0011989601249081123,
        "Eccentricity": 0.0,
        "Inclination(deg)": 45.0,
        "Latitude(deg)": 39.69661280689548,
        "Longitude(deg)": -115.7092150355367,
        "Mean Anomaly(deg)": 115.759522804998,
        "RAAN(deg)": 219.99886821668858,
        "Satellite Name": "Constellation 1 975",
        "Satellite Number": 975,
        "Semi-Major Axis(m)": 7083131.272910544,
        "Time(s)": 20
    },
    {
        "Altitude(m)": 706103.686319668,
        "Argument of Periapsis(deg)": 0.001258908131153518,
        "Eccentricity": 0.0,
        "Inclination(deg)": 45.0,
        "Latitude(deg)": 39.67230061567087,
        "Longitude(deg)": -115.64114362920641,
        "Mean Anomaly(deg)": 115.82022394524789,
        "RAAN(deg)": 219.99881162752303,
        "Satellite Name": "Constellation 1 975",
        "Satellite Number": 975,
        "Semi-Major Axis(m)": 7083131.272910544,
        "Time(s)": 21
    },
    {
        "Altitude(m)": 706098.517289578,
        "Argument of Periapsis(deg)": 0.0013188561373989236,
        "Eccentricity": 0.0,
        "Inclination(deg)": 45.0,
        "Latitude(deg)": 39.647943507964634,
        "Longitude(deg)": -115.57312298718246,
        "Mean Anomaly(deg)": 115.88092508549776,
        "RAAN(deg)": 219.99875503835747,
        "Satellite Name": "Constellation 1 975",
        "Satellite Number": 975,
        "Semi-Major Axis(m)": 7083131.272910544,
        "Time(s)": 22
    },
    {
        "Altitude(m)": 706093.3408461849,
        "Argument of Periapsis(deg)": 0.0013788041436443293,
        "Eccentricity": 0.0,
        "Inclination(deg)": 45.0,
        "Latitude(deg)": 39.623541553283744,
        "Longitude(deg)": -115.50515278708968,
        "Mean Anomaly(deg)": 115.94162622574768,
        "RAAN(deg)": 219.9986984491919,
        "Satellite Name": "Constellation 1 975",
        "Satellite Number": 975,
        "Semi-Major Axis(m)": 7083131.272910544,
        "Time(s)": 23
    },
    {
        "Altitude(m)": 706088.1570210073,
        "Argument of Periapsis(deg)": 0.001438752149889735,
        "Eccentricity": 0.0,
        "Inclination(deg)": 45.0,
        "Latitude(deg)": 39.5990948211343,
        "Longitude(deg)": -115.437233210409,
        "Mean Anomaly(deg)": 116.00232736599757,
        "RAAN(deg)": 219.99864186002634,
        "Satellite Name": "Constellation 1 975",
        "Satellite Number": 975,
        "Semi-Major Axis(m)": 7083131.272910544,
        "Time(s)": 24
    },
    {
        "Altitude(m)": 706082.9658456268,
        "Argument of Periapsis(deg)": 0.0014987001561351404,
        "Eccentricity": 0.0,
        "Inclination(deg)": 45.0,
        "Latitude(deg)": 39.574603381020175,
        "Longitude(deg)": -115.36936427009167,
        "Mean Anomaly(deg)": 116.0630285062475,
        "RAAN(deg)": 219.9985852708608,
        "Satellite Name": "Constellation 1 975",
        "Satellite Number": 975,
        "Semi-Major Axis(m)": 7083131.272910544,
        "Time(s)": 25
    },
    {
        "Altitude(m)": 706077.7673516712,
        "Argument of Periapsis(deg)": 0.001558648162380546,
        "Eccentricity": 0.0,
        "Inclination(deg)": 45.0,
        "Latitude(deg)": 39.55006730244273,
        "Longitude(deg)": -115.30154597865757,
        "Mean Anomaly(deg)": 116.12372964649738,
        "RAAN(deg)": 219.99852868169518,
        "Satellite Name": "Constellation 1 975",
        "Satellite Number": 975,
        "Semi-Major Axis(m)": 7083131.272910544,
        "Time(s)": 26
    },
    {
        "Altitude(m)": 706072.5615708148,
        "Argument of Periapsis(deg)": 0.0016185961686259519,
        "Eccentricity": 0.0,
        "Inclination(deg)": 45.0,
        "Latitude(deg)": 39.52548665490017,
        "Longitude(deg)": -115.23377834819655,
        "Mean Anomaly(deg)": 116.18443078674727,
        "RAAN(deg)": 219.99847209252962,
        "Satellite Name": "Constellation 1 975",
        "Satellite Number": 975,
        "Semi-Major Axis(m)": 7083131.272910544,
        "Time(s)": 27
    },
    {
        "Altitude(m)": 706067.3485347992,
        "Argument of Periapsis(deg)": 0.0016785441748713573,
        "Eccentricity": 0.0,
        "Inclination(deg)": 45.0,
        "Latitude(deg)": 39.50086150788683,
        "Longitude(deg)": -115.16606139036945,
        "Mean Anomaly(deg)": 116.24513192699716,
        "RAAN(deg)": 219.99841550336404,
        "Satellite Name": "Constellation 1 975",
        "Satellite Number": 975,
        "Semi-Major Axis(m)": 7083131.272910544,
        "Time(s)": 28
    },
    {
        "Altitude(m)": 706062.1282753926,
        "Argument of Periapsis(deg)": 0.001738492181116763,
        "Eccentricity": 0.0,
        "Inclination(deg)": 45.0,
        "Latitude(deg)": 39.47619193089288,
        "Longitude(deg)": -115.09839511641036,
        "Mean Anomaly(deg)": 116.30583306724705,
        "RAAN(deg)": 219.9983589141985,
        "Satellite Name": "Constellation 1 975",
        "Satellite Number": 975,
        "Semi-Major Axis(m)": 7083131.272910544,
        "Time(s)": 29
    },
    {
        "Altitude(m)": 706056.9008244353,
        "Argument of Periapsis(deg)": 0.0017984401873621684,
        "Eccentricity": 0.0,
        "Inclination(deg)": 45.0,
        "Latitude(deg)": 39.451477993403714,
        "Longitude(deg)": -115.03077970522398,
        "Mean Anomaly(deg)": 116.36653420749694,
        "RAAN(deg)": 219.99830232503294,
        "Satellite Name": "Constellation 1 975",
        "Satellite Number": 975,
        "Semi-Major Axis(m)": 7083131.272910544,
        "Time(s)": 30
    },
    {
        "Altitude(m)": 706051.666213807,
        "Argument of Periapsis(deg)": 0.0018583881936075745,
        "Eccentricity": 0.0,
        "Inclination(deg)": 45.0,
        "Latitude(deg)": 39.42671976489864,
        "Longitude(deg)": -114.96321483099997,
        "Mean Anomaly(deg)": 116.4272353477469,
        "RAAN(deg)": 219.99824573586733,
        "Satellite Name": "Constellation 1 975",
        "Satellite Number": 975,
        "Semi-Major Axis(m)": 7083131.272910544,
        "Time(s)": 31
    },
    {
        "Altitude(m)": 706046.4244754437,
        "Argument of Periapsis(deg)": 0.0019183361998529795,
        "Eccentricity": 0.0,
        "Inclination(deg)": 45.0,
        "Latitude(deg)": 39.40191731485157,
        "Longitude(deg)": -114.89570067179574,
        "Mean Anomaly(deg)": 116.48793648799675,
        "RAAN(deg)": 219.99818914670178,
        "Satellite Name": "Constellation 1 975",
        "Satellite Number": 975,
        "Semi-Major Axis(m)": 7083131.272910544,
        "Time(s)": 32
    },
    {
        "Altitude(m)": 706041.1756413277,
        "Argument of Periapsis(deg)": 0.0019782842060983856,
        "Eccentricity": 0.0,
        "Inclination(deg)": 45.0,
        "Latitude(deg)": 39.37707071272942,
        "Longitude(deg)": -114.82823723714971,
        "Mean Anomaly(deg)": 116.54863762824668,
        "RAAN(deg)": 219.99813255753622,
        "Satellite Name": "Constellation 1 975",
        "Satellite Number": 975,
        "Semi-Major Axis(m)": 7083131.272910544,
        "Time(s)": 33
    },
    {
        "Altitude(m)": 706035.9197434869,
        "Argument of Periapsis(deg)": 0.0020382322123437906,
        "Eccentricity": 0.0,
        "Inclination(deg)": 45.0,
        "Latitude(deg)": 39.35218002799219,
        "Longitude(deg)": -114.76082453618051,
        "Mean Anomaly(deg)": 116.60933876849654,
        "RAAN(deg)": 219.99807596837064,
        "Satellite Name": "Constellation 1 975",
        "Satellite Number": 975,
        "Semi-Major Axis(m)": 7083131.272910544,
        "Time(s)": 34
    },
    {
        "Altitude(m)": 706030.6568140143,
        "Argument of Periapsis(deg)": 0.002098180218589197,
        "Eccentricity": 0.0,
        "Inclination(deg)": 45.0,
        "Latitude(deg)": 39.32724533009186,
        "Longitude(deg)": -114.69346257758761,
        "Mean Anomaly(deg)": 116.67003990874653,
        "RAAN(deg)": 219.9980193792051,
        "Satellite Name": "Constellation 1 975",
        "Satellite Number": 975,
        "Semi-Major Axis(m)": 7083131.272910544,
        "Time(s)": 35
    },
    {
        "Altitude(m)": 706025.3868850371,
        "Argument of Periapsis(deg)": 0.002158128224834602,
        "Eccentricity": 0.0,
        "Inclination(deg)": 45.0,
        "Latitude(deg)": 39.30226668847228,
        "Longitude(deg)": -114.62615136965314,
        "Mean Anomaly(deg)": 116.73074104899638,
        "RAAN(deg)": 219.99796279003948,
        "Satellite Name": "Constellation 1 975",
        "Satellite Number": 975,
        "Semi-Major Axis(m)": 7083131.272910544,
        "Time(s)": 36
    },
    {
        "Altitude(m)": 706020.109988744,
        "Argument of Periapsis(deg)": 0.002218076231080008,
        "Eccentricity": 0.0,
        "Inclination(deg)": 45.0,
        "Latitude(deg)": 39.27724417256848,
        "Longitude(deg)": -114.55889108834,
        "Mean Anomaly(deg)": 116.79144218924623,
        "RAAN(deg)": 219.99790620087393,
        "Satellite Name": "Constellation 1 975",
        "Satellite Number": 975,
        "Semi-Major Axis(m)": 7083131.272910544,
        "Time(s)": 37
    }
]